sat02120
1 02120U 66024B   20046.84065076  .00000032  00000-0  23110-4 0  9997
2 02120  89.7722 218.3043 0150220 323.5242  35.5759 13.72063407694651
